{
"type": "FeatureCollection",
"name": "relocation_links",
"crs": { "type": "name", "properties": { "name": "urn:ogc:def:crs:OGC:1.3:CRS84" } },
"features": [
{ "type": "Feature", "properties": { "vlcode": "554952", "village": "Pangaloli", "patch_id": 4286, "recommendation_status": "Strong Candidate", "distance_km": 13.685591975833496, "final_feasibility_score": 71.261542072309098 }, "geometry": { "type": "LineString", "coordinates": [ [ 73.167360589007771, 18.071224899787936 ], [ 73.046507237067459, 18.016349015126888 ] ] } },
{ "type": "Feature", "properties": { "vlcode": "554784", "village": "Charai Kh", "patch_id": 3991, "recommendation_status": "Suitable Candidate", "distance_km": 15.968942281163844, "final_feasibility_score": 60.705960318641637 }, "geometry": { "type": "LineString", "coordinates": [ [ 73.144908301653132, 18.258558751134274 ], [ 72.998478697512056, 18.221825114812013 ] ] } },
{ "type": "Feature", "properties": { "vlcode": "554992", "village": "Achaloli", "patch_id": 4165, "recommendation_status": "Suitable Candidate", "distance_km": 21.007245058753281, "final_feasibility_score": 66.851524520026572 }, "geometry": { "type": "LineString", "coordinates": [ [ 73.397369657458725, 18.119313780749223 ], [ 73.594557974556565, 18.138877549341416 ] ] } },
{ "type": "Feature", "properties": { "vlcode": "554939", "village": "Wave", "patch_id": 4286, "recommendation_status": "Suitable Candidate", "distance_km": 19.434756851625355, "final_feasibility_score": 66.087293684096409 }, "geometry": { "type": "LineString", "coordinates": [ [ 73.210701792104402, 18.093320750315421 ], [ 73.046507237067459, 18.016349015126888 ] ] } },
{ "type": "Feature", "properties": { "vlcode": "554945", "village": "Sanderi", "patch_id": 4286, "recommendation_status": "Suitable Candidate", "distance_km": 21.432016467624194, "final_feasibility_score": 64.289760029697462 }, "geometry": { "type": "LineString", "coordinates": [ [ 73.238132304199368, 18.082016712226771 ], [ 73.046507237067459, 18.016349015126888 ] ] } },
{ "type": "Feature", "properties": { "vlcode": "554948", "village": "Mahammad Khanikhar", "patch_id": 4286, "recommendation_status": "Suitable Candidate", "distance_km": 18.567192109557137, "final_feasibility_score": 66.868101951957811 }, "geometry": { "type": "LineString", "coordinates": [ [ 73.212001126635855, 18.076329648543073 ], [ 73.046507237067459, 18.016349015126888 ] ] } },
{ "type": "Feature", "properties": { "vlcode": "554949", "village": "Maryamkhar", "patch_id": 4286, "recommendation_status": "Suitable Candidate", "distance_km": 16.897338013044344, "final_feasibility_score": 68.370970638819315 }, "geometry": { "type": "LineString", "coordinates": [ [ 73.196373342985567, 18.074071453152246 ], [ 73.046507237067459, 18.016349015126888 ] ] } },
{ "type": "Feature", "properties": { "vlcode": "554606", "village": "Palasgaon Bk", "patch_id": 3588, "recommendation_status": "Suitable Candidate", "distance_km": 19.086770703540392, "final_feasibility_score": 69.56417144450127 }, "geometry": { "type": "LineString", "coordinates": [ [ 73.360742339635365, 18.243082748556013 ], [ 73.389371875771701, 18.4116338495826 ] ] } },
{ "type": "Feature", "properties": { "vlcode": "554672", "village": "Unegaon", "patch_id": 3639, "recommendation_status": "Suitable Candidate", "distance_km": 23.153786078041342, "final_feasibility_score": 59.529783969893238 }, "geometry": { "type": "LineString", "coordinates": [ [ 73.285683743502048, 18.19934709826925 ], [ 73.38264677071119, 18.388914453942363 ] ] } },
{ "type": "Feature", "properties": { "vlcode": "555152", "village": "Divil", "patch_id": 4165, "recommendation_status": "Suitable Candidate", "distance_km": 16.272614563054859, "final_feasibility_score": 71.112691966155154 }, "geometry": { "type": "LineString", "coordinates": [ [ 73.484626406909612, 18.033420392934939 ], [ 73.594557974556565, 18.138877549341416 ] ] } },
{ "type": "Feature", "properties": { "vlcode": "555168", "village": "Wazarwadi", "patch_id": 4165, "recommendation_status": "Suitable Candidate", "distance_km": 18.055538591469329, "final_feasibility_score": 69.508060340582119 }, "geometry": { "type": "LineString", "coordinates": [ [ 73.497283190546597, 18.002865132506177 ], [ 73.594557974556565, 18.138877549341416 ] ] } },
{ "type": "Feature", "properties": { "vlcode": "555174", "village": "Sakhar", "patch_id": 4165, "recommendation_status": "Suitable Candidate", "distance_km": 16.327355076209162, "final_feasibility_score": 71.063425504316285 }, "geometry": { "type": "LineString", "coordinates": [ [ 73.550066288238725, 17.997379720339168 ], [ 73.594557974556565, 18.138877549341416 ] ] } },
{ "type": "Feature", "properties": { "vlcode": "555185", "village": "Borawale", "patch_id": 4165, "recommendation_status": "Suitable Candidate", "distance_km": 17.332319890584696, "final_feasibility_score": 70.158957171378304 }, "geometry": { "type": "LineString", "coordinates": [ [ 73.532238103924428, 17.992055768974918 ], [ 73.594557974556565, 18.138877549341416 ] ] } },
{ "type": "Feature", "properties": { "vlcode": "555182", "village": "Boraj", "patch_id": 4165, "recommendation_status": "Suitable Candidate", "distance_km": 17.977611847826687, "final_feasibility_score": 69.578194409860501 }, "geometry": { "type": "LineString", "coordinates": [ [ 73.550566857703728, 17.98219305035672 ], [ 73.594557974556565, 18.138877549341416 ] ] } },
{ "type": "Feature", "properties": { "vlcode": "555187", "village": "Karanje", "patch_id": 4165, "recommendation_status": "Suitable Candidate", "distance_km": 18.061540062716269, "final_feasibility_score": 69.502659016459887 }, "geometry": { "type": "LineString", "coordinates": [ [ 73.599927614406198, 17.974503826535525 ], [ 73.594557974556565, 18.138877549341416 ] ] } },
{ "type": "Feature", "properties": { "vlcode": "555186", "village": "Deole", "patch_id": 4165, "recommendation_status": "Suitable Candidate", "distance_km": 18.69404176075092, "final_feasibility_score": 68.933407488228696 }, "geometry": { "type": "LineString", "coordinates": [ [ 73.556310522790412, 17.972052747734303 ], [ 73.594557974556565, 18.138877549341416 ] ] } },
{ "type": "Feature", "properties": { "vlcode": "555194", "village": "Wakan", "patch_id": 4165, "recommendation_status": "Suitable Candidate", "distance_km": 20.933744723017799, "final_feasibility_score": 66.917674822188516 }, "geometry": { "type": "LineString", "coordinates": [ [ 73.528256669519891, 17.963389437321982 ], [ 73.594557974556565, 18.138877549341416 ] ] } },
{ "type": "Feature", "properties": { "vlcode": "555193", "village": "Naneghol", "patch_id": 4165, "recommendation_status": "Suitable Candidate", "distance_km": 19.912980773454507, "final_feasibility_score": 67.836362376795464 }, "geometry": { "type": "LineString", "coordinates": [ [ 73.555951910903246, 17.961719181611919 ], [ 73.594557974556565, 18.138877549341416 ] ] } },
{ "type": "Feature", "properties": { "vlcode": "555195", "village": "Kapade Kh", "patch_id": 4165, "recommendation_status": "Suitable Candidate", "distance_km": 23.127217552237767, "final_feasibility_score": 64.943549275890533 }, "geometry": { "type": "LineString", "coordinates": [ [ 73.537467230339416, 17.936575792439935 ], [ 73.594557974556565, 18.138877549341416 ] ] } },
{ "type": "Feature", "properties": { "vlcode": "555172", "village": "Cholai", "patch_id": 4165, "recommendation_status": "Suitable Candidate", "distance_km": 22.339328197882651, "final_feasibility_score": 65.652649694810123 }, "geometry": { "type": "LineString", "coordinates": [ [ 73.466315438120361, 17.9783367042991 ], [ 73.594557974556565, 18.138877549341416 ] ] } },
{ "type": "Feature", "properties": { "vlcode": "555044", "village": "Bhivghar", "patch_id": 4165, "recommendation_status": "Strong Candidate", "distance_km": 10.429334861384714, "final_feasibility_score": 76.371643697658271 }, "geometry": { "type": "LineString", "coordinates": [ [ 73.518552638706907, 18.076245677801435 ], [ 73.594557974556565, 18.138877549341416 ] ] } },
{ "type": "Feature", "properties": { "vlcode": "555066", "village": "Kondiwate", "patch_id": 4165, "recommendation_status": "Suitable Candidate", "distance_km": 15.517845952818169, "final_feasibility_score": 71.791983715368175 }, "geometry": { "type": "LineString", "coordinates": [ [ 73.458061415939554, 18.081142374410042 ], [ 73.594557974556565, 18.138877549341416 ] ] } },
{ "type": "Feature", "properties": { "vlcode": "555144", "village": "Matwan", "patch_id": 4165, "recommendation_status": "Strong Candidate", "distance_km": 12.371855162297246, "final_feasibility_score": 74.623375426837001 }, "geometry": { "type": "LineString", "coordinates": [ [ 73.498619786901884, 18.077907052717691 ], [ 73.594557974556565, 18.138877549341416 ] ] } },
{ "type": "Feature", "properties": { "vlcode": "555037", "village": "Rupavali", "patch_id": 4165, "recommendation_status": "Strong Candidate", "distance_km": 8.675823065006135, "final_feasibility_score": 77.949804314399003 }, "geometry": { "type": "LineString", "coordinates": [ [ 73.554451937240316, 18.067847772747307 ], [ 73.594557974556565, 18.138877549341416 ] ] } },
{ "type": "Feature", "properties": { "vlcode": "554554", "village": "Varchiwadi", "patch_id": 3588, "recommendation_status": "Strong Candidate", "distance_km": 3.2049082300611733, "final_feasibility_score": 83.857847670632552 }, "geometry": { "type": "LineString", "coordinates": [ [ 73.358677896230901, 18.41144414471049 ], [ 73.389371875771701, 18.4116338495826 ] ] } },
{ "type": "Feature", "properties": { "vlcode": "553971", "village": "Warap", "patch_id": 3298, "recommendation_status": "Weak Candidate", "distance_km": 24.240337982896619, "final_feasibility_score": 38.278046194140373 }, "geometry": { "type": "LineString", "coordinates": [ [ 73.138232808060891, 18.608041031625728 ], [ 73.327235163023886, 18.736610820087936 ] ] } },
{ "type": "Feature", "properties": { "vlcode": "554526", "village": "Adulse", "patch_id": 3588, "recommendation_status": "Suitable Candidate", "distance_km": 17.063687016837669, "final_feasibility_score": 71.384946762533716 }, "geometry": { "type": "LineString", "coordinates": [ [ 73.286075574646759, 18.530985695784995 ], [ 73.389371875771701, 18.4116338495826 ] ] } },
{ "type": "Feature", "properties": { "vlcode": "553495", "village": "Ladiwali", "patch_id": 1549, "recommendation_status": "Suitable Candidate", "distance_km": 17.350932538526468, "final_feasibility_score": 71.278966273053996 }, "geometry": { "type": "LineString", "coordinates": [ [ 73.152920796015465, 18.865873062831099 ], [ 73.014739180716447, 18.955252623508539 ] ] } },
{ "type": "Feature", "properties": { "vlcode": "553910", "village": "Warsai", "patch_id": 1549, "recommendation_status": "Suitable Candidate", "distance_km": 24.783477959794041, "final_feasibility_score": 64.589675393913197 }, "geometry": { "type": "LineString", "coordinates": [ [ 73.159970835137074, 18.772810244934831 ], [ 73.014739180716447, 18.955252623508539 ] ] } }
]
}
